ONEWEB-0256             
1 48974U 21060H   23284.84816405  .00000073  00000+0  15816-3 0  9999
2 48974  87.9036  63.7065 0001833 100.0836 260.0502 13.16595097112057
ONEWEB-0257             
1 48975U 21060J   23284.88194562 -.00000041  00000+0 -14135-3 0  9997
2 48975  87.9043  63.6711 0001899  94.7123 265.4224 13.16595024112019
ONEWEB-0258             
1 48976U 21060K   23284.88405023 -.00000058  00000+0 -18574-3 0  9994
2 48976  87.9041  63.6994 0001642  93.4768 266.6550 13.16593145112015
ONEWEB-0259             
1 48977U 21060L   23284.87771955 -.00000099  00000+0 -29388-3 0  9994
2 48977  87.9042  63.6855 0001495  85.2525 274.8776 13.16593034112051
ONEWEB-0260             
1 48978U 21060M   23284.41541068 -.00000013  00000+0 -67414-4 0  9994
2 48978  87.9041  63.8084 0002479  99.7109 260.4301 13.16594977110687
ONEWEB-0261             
1 48979U 21060N   23284.76161794  .00000052  00000+0  10322-3 0  9993
2 48979  87.9126  63.7277 0002036  83.1104 277.0258 13.16594367112080
ONEWEB-0262             
1 48980U 21060P   23284.43860927 -.00000032  00000+0 -11731-3 0  9998
2 48980  87.9040  63.7598 0001511  75.9899 284.1399 13.16591102110706
ONEWEB-0263             
1 48981U 21060Q   23284.47030129  .00000102  00000+0  23252-3 0  9993
2 48981  87.9035  63.7691 0001824  78.1814 281.9522 13.16593236111977
